{"spkid": "50651181", "covariance": {"epoch": "2457160.5", "elements": [{"label": "e", "units": null, "value": ".7588429157498154", "title": "eccentricity", "name": "e", "sigma": 1.45124066142686e-07}, {"label": "q", "name": "q", "sigma": 3.5504131934166e-07, "value": ".5696047169682936", "title": "perihelion distance", "units": "au"}, {"value": "2456517.199877555643", "title": "time of perihelion passage", "units": "TDB", "sigma": 3.81858417396652e-05, "name": "tp", "label": "tp"}, {"label": "node", "units": "deg", "value": "182.395773975015", "title": "longitude of the ascending node", "sigma": 9.83344329097073e-05, "name": "om"}, {"name": "w", "sigma": 9.48957815560175e-05, "units": "deg", "title": "argument of perihelion", "value": "102.9957463863744", "label": "peri"}, {"label": "i", "name": "i", "sigma": 1.67811759720536e-05, "title": "inclination", "value": "6.048240158065211", "units": "deg"}], "data": [["2.10609945737866E-14", "-5.150647951693474E-14", "-9.434545744459633E-13", "-2.94477726370678E-12", "-2.011552798850701E-12", "-1.534077301601977E-13"], ["-5.150647951693474E-14", "1.260543384398663E-13", "2.0028101461966E-12", "7.011763839333126E-12", "5.020960717007574E-12", "3.818136087117066E-13"], ["-9.434545744459633E-13", "2.0028101461966E-12", "1.458158509366754E-9", "9.748772753976038E-10", "-3.075772157107814E-10", "-2.97211543282936E-11"], ["-2.94477726370678E-12", "7.011763839333126E-12", "9.748772753976038E-10", "9.669660695673724E-9", "-8.6722857145376E-9", "1.381119965650503E-9"], ["-2.011552798850701E-12", "5.020960717007574E-12", "-3.075772157107814E-10", "-8.6722857145376E-9", "9.005209357127393E-9", "-1.349100643464624E-9"], ["-1.534077301601977E-13", "3.818136087117066E-13", "-2.97211543282936E-11", "1.381119965650503E-9", "-1.349100643464624E-9", "2.8160786700503E-10"]], "labels": ["e", "q", "tp", "node", "peri", "i"]}, "elements": [{"units": null, "title": "eccentricity", "value": ".7556093506271701", "name": "e", "sigma": "1.4394E-7", "label": "e"}, {"label": "a", "value": "2.373100617285062", "title": "semi-major axis", "units": "au", "name": "a", "sigma": "6.2378E-8"}, {"units": "au", "value": ".5799636008853599", "title": "perihelion distance", "sigma": "3.5401E-7", "name": "q", "label": "q"}, {"name": "i", "sigma": "1.6527E-5", "title": "inclination; angle with respect to x-y ecliptic plane", "value": "6.06549876586982", "units": "deg", "label": "i"}, {"units": "deg", "value": "180.3723394544234", "title": "longitude of the ascending node", "sigma": "9.7736E-5", "name": "om", "label": "node"}, {"sigma": "9.516E-5", "name": "w", "value": "105.2112350084922", "title": "argument of perihelion", "units": "deg", "label": "peri"}, {"title": "mean anomaly", "value": "189.5504507761332", "units": "deg", "name": "ma", "sigma": "4.9054E-5", "label": "M"}, {"label": "tp", "units": "TDB", "value": "2461832.716769907847", "title": "time of perihelion passage", "name": "tp", "sigma": ".0002064"}, {"units": "d", "title": "sidereal orbital period", "value": "1335.280956759234", "name": "per", "sigma": "5.2648E-5", "label": "period"}, {"title": "mean motion", "value": ".269606181513837", "units": "deg/d", "sigma": "1.063E-8", "name": "n", "label": "n"}, {"title": "aphelion distance", "value": "4.166237633684765", "units": "au", "sigma": "1.0951E-7", "name": "ad", "label": "Q"}], "epoch": "2461200.5"}